TIANWANG 1C (TW-1C)     
1 40926U 15051B   17159.82941524  .00005815  00000-0  13555-3 0  9992
2 40926  97.2310 199.4555 0011486 189.2767 257.2206 15.42574561 95630
TIANWANG 1B (TW-1B)     
1 40927U 15051C   17159.87770833  .00005680  00000-0  13737-3 0  9993
2 40927  97.2397 199.5254 0010843 200.2083 157.7934 15.41476033 95584
TIANWANG 1A (TW-1A)     
1 40928U 15051D   17159.86355324  .00002764  00000-0  80865-4 0  9994
2 40928  97.2277 195.8296 0011213 222.4466 138.5951 15.36045291 95421
LAPAN-A2 (IO-86)        
1 40931U 15052B   17159.73366044  .00000639  00000-0  12000-6 0  9993
2 40931   6.0008 293.0045 0012260 124.0280 236.1240 14.76529968 91717
LQSAT                   
1 40958U 15057A   17159.89251017  .00000003  00000-0  82137-5 0  9999
2 40958  97.9778 235.3567 0019672  92.3729 267.9715 14.72966870 89906
CHUBUSAT-2              
1 41338U 16012B   17159.43372594  .00000313  00000-0  17859-4 0  9990
2 41338  31.0021 167.8533 0013946 332.7867  27.2036 14.99738177 71677
CHUBUSAT-3              
1 41339U 16012C   17159.42968802  .00000301  00000-0  16869-4 0  9990
2 41339  31.0106 167.0393 0013984 339.8648  20.1435 14.99943977 71654
OUFTI-1                 
1 41458U 16025C   17159.92354386  .00001375  00000-0  78295-4 0  9990
2 41458  98.1837 197.0266 0172771 317.3943  41.3986 15.03143342 61347
E-ST@R-II               
1 41459U 16025D   17159.94358848  .00000718  00000-0  43335-4 0  9997
2 41459  98.1880 197.0031 0173856 318.0995  40.7030 15.02997834 61330
AAUSAT 4                
1 41460U 16025E   17159.87932851  .00001705  00000-0  96044-4 0  9995
2 41460  98.1791 197.0323 0166373 316.5615  42.2575 15.03876128 61340
NUSAT 1 (LO-87)         
1 41557U 16033B   17159.82273201  .00001319  00000-0  52422-4 0  9996
2 41557  97.4635 239.3397 0015362  42.6220 317.6208 15.27018535 57159
BEESAT-4                
1 41619U 16040W   17159.63739009  .00001389  00000-0  66196-4 0  9995
2 41619  97.4630 222.1072 0013901  97.8669 262.4145 15.20716229 41292
PRATHAM                 
1 41783U 16059A   17159.88435870  .00000052  00000-0  19683-4 0  9998
2 41783  98.1676 221.3442 0033589 184.5876 175.5023 14.62837298 37381
ALSAT 1N                
1 41789U 16059G   17159.74308516  .00000106  00000-0  29332-4 0  9997
2 41789  98.1675 221.6887 0028320 178.6641 181.4636 14.64047576 37372
NAYIF-1 (EO-88)         
1 42017U 17008BX  17159.89299485  .00001420  00000-0  63568-4 0  9996
2 42017  97.4959 221.3655 0005083 243.1316 116.9401 15.22939768 17225
